OBJECT_NAME,OBJECT_ID,EPOCH,MEAN_MOTION,ECCENTRICITY,INCLINATION,RA_OF_ASC_NODE,ARG_OF_PERICENTER,MEAN_ANOMALY,EPHEMERIS_TYPE,CLASSIFICATION_TYPE,NORAD_CAT_ID,ELEMENT_SET_NO,REV_AT_EPOCH,BSTAR,MEAN_MOTION_DOT,MEAN_MOTION_DDOT
CBERS 4A,2019-093E,2026-06-13T07:23:18.646944,14.81789047,.00021643,98.0130,231.7442,1.9141,358.2079,0,U,44883,999,35050,.22132588E-3,.1693E-4,0
WEILAI 1R,2019-093F,2026-06-13T06:05:30.734880,15.00614999,.00179567,97.7854,254.1340,48.2811,311.9945,0,U,44884,999,35183,.47875278E-3,.601E-4,0
FLORIPASAT-1,2019-093G,2026-06-13T07:11:39.663168,15.03837912,.00130889,97.7915,258.5028,83.9970,276.2746,0,U,44885,999,35206,.45580498E-3,.6221E-4,0
SHUNTIAN,2019-093H,2026-06-13T06:13:44.840928,14.95141973,.00133003,97.8009,252.4395,80.6231,279.6493,0,U,44886,999,35159,.37149455E-3,.4026E-4,0
2019-093L,2019-093L,2026-06-13T05:41:23.659296,14.94518589,.00133948,97.7560,242.5438,67.8497,292.4144,0,U,44889,999,35121,.4293566E-3,.4589E-4,0
ELEKTRO-L 3,2019-095A,2026-06-13T01:32:15.973728,1.00271696,.00010843,0.2449,81.5387,355.9180,282.9502,0,U,44903,999,2366,0,-.83E-6,0
GONETS-M 14,2019-096A,2026-06-13T06:21:15.984576,12.42869757,.00133435,82.5232,87.0719,156.3253,203.8443,0,U,44905,999,29319,.20995044E-4,.13E-6,0
GONETS-M 15,2019-096B,2026-06-13T07:03:36.479808,12.42871400,.00147176,82.5252,87.5144,180.0586,180.0495,0,U,44906,999,29316,.1969357E-3,.37E-6,0
GONETS-M 16,2019-096C,2026-06-13T05:45:32.285664,12.42891352,.00097111,82.5198,86.5024,224.1066,135.9241,0,U,44907,999,29314,-.53205569E-3,-.64E-6,0
RS-44 & BREEZE-KM R/B,2019-096E,2026-06-13T06:03:34.429248,12.79748773,.02180139,82.5217,342.3200,153.3389,207.9122,0,U,44909,999,30184,.69238531E-4,.3E-6,0
JILIN-1 KUANFU 01,2020-003A,2026-06-13T05:53:02.051232,15.10703426,.00085701,97.5032,238.2771,323.4448,36.6196,0,U,45016,999,35473,.1574043E-3,.2545E-4,0
XINGYUN-2 01,2020-028A,2026-06-13T05:41:09.214080,15.11795415,.00079451,97.4863,156.7157,207.7888,152.2919,0,U,45602,999,33424,.1961799E-3,.3287E-4,0
XINGYUN-2 02,2020-028B,2026-06-13T06:44:41.199360,15.11526326,.00093159,97.5071,170.3410,289.3955,70.6268,0,U,45603,999,33424,.18131369E-3,.301E-4,0
HAIYANG-1D,2020-036A,2026-06-13T06:36:40.296096,14.34172988,.00031736,98.4550,106.0400,136.6249,223.5186,0,U,45721,999,31441,.13312895E-3,.33E-5,0
M2 PATHFINDER,2020-037E,2026-06-13T01:21:46.185984,15.04661676,.00121561,97.8154,355.2425,159.0207,201.1520,0,U,45727,999,32487,.16961536E-3,.2324E-4,0
GAOFEN DUOMO (GFDM),2020-042A,2026-06-13T06:40:05.090016,14.76875913,.00124888,97.7753,224.3061,85.8520,274.4118,0,U,45856,999,32043,.13205994E-3,.88E-5,0
ZIYUAN 3-03 (ZY 3-03),2020-051A,2026-06-13T07:17:28.165344,15.21504436,.00035524,97.2843,232.1546,339.4405,20.6688,0,U,45939,999,32675,.21113338E-3,.4684E-4,0
NEMO-HD,2020-061F,2026-06-13T05:49:21.093600,15.44519850,.0002439,97.1928,226.2351,85.4426,274.7102,0,U,46277,999,32137,.25183037E-3,.11599E-3,0
3CAT-5A,2020-061W,2026-06-12T21:42:25.650720,15.45970018,.00031167,97.2413,226.8014,122.6728,237.4822,0,U,46292,999,32036,.35877124E-3,.17413E-3,0
3CAT-5B,2020-061X,2026-06-13T03:36:35.613216,15.47348979,.00033684,97.2407,228.0222,123.2820,236.8753,0,U,46293,999,32043,.35510092E-3,.18074E-3,0
NAPA-1,2020-061BA,2026-06-13T06:27:35.867232,15.67493747,.00013656,97.2475,238.3208,167.9805,192.1489,0,U,46320,999,32112,.58471614E-3,.6359E-3,0
JILIN-1 GAOFEN 3E,2020-065D,2026-06-13T06:05:16.367424,15.63181566,.00126735,97.2257,216.7725,169.3508,190.8022,0,U,46457,999,31914,.65698886E-3,.60433E-3,0
JILIN-1 GAOFEN 3F,2020-065E,2026-06-13T06:31:27.745824,15.60524449,.00142839,97.2209,214.1454,158.4592,201.7270,0,U,46458,999,31909,.58738931E-3,.48731E-3,0
JILIN-1 GAOFEN 3G,2020-065F,2026-06-13T06:17:24.376416,15.70544987,.00091575,97.2283,220.8741,77.9186,282.3103,0,U,46459,999,31932,.75117816E-3,.93131E-3,0
JILIN-1 GAOFEN 3H,2020-065G,2026-06-13T06:56:16.058400,15.67242555,.00040296,97.2222,217.2536,13.7333,346.4037,0,U,46460,999,31927,.66451862E-3,.71649E-3,0
HAIYANG-2C,2020-066A,2026-06-13T08:01:11.838720,13.83374523,.0009067,65.9971,224.8771,238.0973,121.9214,0,U,46469,999,28896,-.15869439E-4,-.99E-6,0
HJ-2A,2020-067A,2026-06-13T07:15:28.325952,14.76509865,.00023984,97.8829,242.7666,288.0667,72.0281,0,U,46478,999,30768,.41528904E-4,.24E-5,0
HJ-2B,2020-067B,2026-06-13T06:31:09.624288,14.76554213,.00012152,97.8893,243.7548,96.8525,263.2823,0,U,46479,999,30768,.11284053E-3,.737E-5,0
GONETS-M 17,2020-068A,2026-06-13T06:21:38.630016,12.42873043,.00232296,82.4990,349.9437,45.7029,314.5951,0,U,46486,999,25867,.23836145E-4,.13E-6,0
GONETS-M 18,2020-068B,2026-06-13T07:25:13.615104,12.42873402,.00204897,82.4943,349.0355,42.3388,317.9268,0,U,46487,999,25866,.41480518E-3,.67E-6,0
