{"_default": { "2": {"norad_id": "46277", "name": "NEMO-HD", "tle1": "1 46277U 20061F   26164.24260525  .00011599  00000-0  25183-3 0  9997", "tle2": "2 46277  97.1928 226.2351 0002439  85.4426 274.7102 15.44519850321373", "object_type": "PAYLOAD", "criticality_score": 9.0, "last_updated": "2026-06-13T17:29:25.184973+00:00", "maneuver_count": 0, "owner": "N/A"}, "3": {"norad_id": "44885", "name": "OBJECT G", "tle1": "1 44885U 19093G   26164.29976462  .00006221  00000-0  45580-3 0  9991", "tle2": "2 44885  97.7915 258.5028 0013089  83.9970 276.2746 15.03837912352065", "object_type": "PAYLOAD", "criticality_score": 9.0, "last_updated": "2026-06-13T17:29:25.184973+00:00", "maneuver_count": 0, "owner": "N/A"}, "130": {"norad_id": "45727", "name": "M2 PATHFINDER", "tle1": "1 45727U 20037E   26164.05678456  .00002324  00000-0  16962-3 0  9995", "tle2": "2 45727  97.8154 355.2425 0012156 159.0207 201.1520 15.04661676324873", "object_type": "PAYLOAD", "criticality_score": 9.0, "last_updated": "2026-06-13T17:29:25.184973+00:00", "maneuver_count": 0, "owner": "N/A"}, "147": {"norad_id": "44909", "name": "BREEZE-KM R/B", "tle1": "1 44909U 19096E   26164.25248182  .00000030  00000-0  69239-4 0  9998", "tle2": "2 44909  82.5217 342.3200 0218014 153.3389 207.9122 12.79748773301849", "object_type": "ROCKET_BODY", "criticality_score": 9.0, "last_updated": "2026-06-13T17:29:25.184973+00:00", "maneuver_count": 0, "owner": "N/A"}, "220": {"norad_id": "44903", "name": "ELEKTRO-L 3", "tle1": "1 44903U 19095A   26164.06407377 -.00000083  00000-0  00000-0 0  9999", "tle2": "2 44903   0.2449  81.5387 0001084 355.9180 282.9502  1.00271696 23664", "object_type": "PAYLOAD", "criticality_score": 9.0, "last_updated": "2026-06-13T17:29:25.184973+00:00", "maneuver_count": 0, "owner": "N/A"}, "234": {"norad_id": "46292", "name": "3CAT-5/A (TYVAK-0161)", "tle1": "1 46292U 20061W   26163.90446355  .00017413  00000-0  35877-3 0  9995", "tle2": "2 46292  97.2413 226.8014 0003117 122.6728 237.4822 15.45970018320366", "object_type": "PAYLOAD", "criticality_score": 9.0, "last_updated": "2026-06-13T17:29:25.184973+00:00", "maneuver_count": 0, "owner": "N/A"}, "235": {"norad_id": "46293", "name": "3CAT-5/B (TYVAK-0162)", "tle1": "1 46293U 20061X   26164.15041219  .00018074  00000-0  35510-3 0  9992", "tle2": "2 46293  97.2407 228.0222 0003368 123.2820 236.8753 15.47348979320434", "object_type": "PAYLOAD", "criticality_score": 9.0, "last_updated": "2026-06-13T17:29:25.184973+00:00", "maneuver_count": 0, "owner": "N/A"}, "246": {"norad_id": "46320", "name": "NAPA-1", "tle1": "1 46320U 20061BA  26164.26916513  .00063590  00000-0  58472-3 0  9998", "tle2": "2 46320  97.2475 238.3208 0001366 167.9805 192.1489 15.67493747321125", "object_type": "PAYLOAD", "criticality_score": 9.0, "last_updated": "2026-06-13T17:29:25.184973+00:00", "maneuver_count": 0, "owner": "N/A"}, "281": {"norad_id": "44889", "name": "OBJECT L", "tle1": "1 44889U 19093L   26164.23707939  .00004589  00000-0  42936-3 0  9997", "tle2": "2 44889  97.7560 242.5438 0013395  67.8497 292.4144 14.94518589351211", "object_type": "PAYLOAD", "criticality_score": 9.0, "last_updated": "2026-06-13T17:29:25.184973+00:00", "maneuver_count": 0, "owner": "N/A"}, "282": {"norad_id": "44886", "name": "OBJECT H", "tle1": "1 44886U 19093H   26164.25954677  .00004026  00000-0  37149-3 0  9995", "tle2": "2 44886  97.8009 252.4395 0013300  80.6231 279.6493 14.95141973351599", "object_type": "PAYLOAD", "criticality_score": 9.0, "last_updated": "2026-06-13T17:29:25.184973+00:00", "maneuver_count": 0, "owner": "N/A"}, "359": {"norad_id": "46460", "name": "JILIN-01 GAOFEN 3H", "tle1": "1 46460U 20065G   26164.28907475  .00071649  00000-0  66452-3 0  9997", "tle2": "2 46460  97.2222 217.2536 0004030  13.7333 346.4037 15.67242555319270", "object_type": "PAYLOAD", "criticality_score": 9.0, "last_updated": "2026-06-13T17:29:25.184973+00:00", "maneuver_count": 0, "owner": "N/A"}, "360": {"norad_id": "46459", "name": "JILIN-01 GAOFEN 3G", "tle1": "1 46459U 20065F   26164.26208769  .00093131  00000-0  75118-3 0  9992", "tle2": "2 46459  97.2283 220.8741 0009157  77.9186 282.3103 15.70544987319322", "object_type": "PAYLOAD", "criticality_score": 9.0, "last_updated": "2026-06-13T17:29:25.184973+00:00", "maneuver_count": 0, "owner": "N/A"}, "361": {"norad_id": "46458", "name": "JILIN-01 GAOFEN 3F", "tle1": "1 46458U 20065E   26164.27184891  .00048731  00000-0  58739-3 0  9997", "tle2": "2 46458  97.2209 214.1454 0014284 158.4592 201.7270 15.60524449319093", "object_type": "PAYLOAD", "criticality_score": 9.0, "last_updated": "2026-06-13T17:29:25.184973+00:00", "maneuver_count": 0, "owner": "N/A"}, "362": {"norad_id": "46457", "name": "JILIN-01 GAOFEN 3E", "tle1": "1 46457U 20065D   26164.25366166  .00060433  00000-0  65699-3 0  9997", "tle2": "2 46457  97.2257 216.7725 0012674 169.3508 190.8022 15.63181566319144", "object_type": "PAYLOAD", "criticality_score": 9.0, "last_updated": "2026-06-13T17:29:25.184973+00:00", "maneuver_count": 0, "owner": "N/A"}, "403": {"norad_id": "44884", "name": "OBJECT F", "tle1": "1 44884U 19093F   26164.25382795  .00006010  00000-0  47875-3 0  9991", "tle2": "2 44884  97.7854 254.1340 0017957  48.2811 311.9945 15.00614999351838", "object_type": "PAYLOAD", "criticality_score": 9.0, "last_updated": "2026-06-13T17:29:25.184973+00:00", "maneuver_count": 0, "owner": "N/A"}, "411": {"norad_id": "44883", "name": "CBERS 4A", "tle1": "1 44883U 19093E   26164.30785471  .00001693  00000-0  22133-3 0  9996", "tle2": "2 44883  98.0130 231.7442 0002164   1.9141 358.2079 14.81789047350508", "object_type": "PAYLOAD", "criticality_score": 9.0, "last_updated": "2026-06-13T17:29:25.184973+00:00", "maneuver_count": 0, "owner": "N/A"}, "425": {"norad_id": "45602", "name": "XINGYUN-2 01", "tle1": "1 45602U 20028A   26164.23691220  .00003287  00000-0  19618-3 0  9991", "tle2": "2 45602  97.4863 156.7157 0007945 207.7888 152.2919 15.11795415334247", "object_type": "PAYLOAD", "criticality_score": 9.0, "last_updated": "2026-06-13T17:29:25.184973+00:00", "maneuver_count": 0, "owner": "N/A"}, "431": {"norad_id": "45721", "name": "HAIYANG 1D", "tle1": "1 45721U 20036A   26164.27546639  .00000330  00000-0  13313-3 0  9991", "tle2": "2 45721  98.4550 106.0400 0003174 136.6249 223.5186 14.34172988314416", "object_type": "PAYLOAD", "criticality_score": 9.0, "last_updated": "2026-06-13T17:29:25.184973+00:00", "maneuver_count": 0, "owner": "N/A"}, "443": {"norad_id": "46469", "name": "HAIYANG 2C", "tle1": "1 46469U 20066A   26164.33416480 -.00000099  00000-0 -15869-4 0  9994", "tle2": "2 46469  65.9971 224.8771 0009067 238.0973 121.9214 13.83374523288965", "object_type": "PAYLOAD", "criticality_score": 9.0, "last_updated": "2026-06-13T17:29:25.184973+00:00", "maneuver_count": 0, "owner": "N/A"}, "479": {"norad_id": "46479", "name": "HJ-2B", "tle1": "1 46479U 20067B   26164.27163917  .00000737  00000-0  11284-3 0  9996", "tle2": "2 46479  97.8893 243.7548 0001215  96.8525 263.2823 14.76554213307681", "object_type": "PAYLOAD", "criticality_score": 9.0, "last_updated": "2026-06-13T17:29:25.184973+00:00", "maneuver_count": 0, "owner": "N/A"}, "530": {"norad_id": "45939", "name": "ZINYUAN-3", "tle1": "1 45939U 20051A   26164.30379821  .00004684  00000-0  21113-3 0  9993", "tle2": "2 45939  97.2843 232.1546 0003552 339.4405  20.6688 15.21504436326755", "object_type": "PAYLOAD", "criticality_score": 9.0, "last_updated": "2026-06-13T17:29:25.184973+00:00", "maneuver_count": 0, "owner": "N/A"}, "566": {"norad_id": "45016", "name": "JILIN-01 KUANFU 01", "tle1": "1 45016U 20003A   26164.24516263  .00002545  00000-0  15740-3 0  9995", "tle2": "2 45016  97.5032 238.2771 0008570 323.4448  36.6196 15.10703426354734", "object_type": "PAYLOAD", "criticality_score": 9.0, "last_updated": "2026-06-13T17:29:25.184973+00:00", "maneuver_count": 0, "owner": "N/A"}, "567": {"norad_id": "45856", "name": "GAOFEN DUOMO (GFDM)", "tle1": "1 45856U 20042A   26164.27783669  .00000880  00000-0  13206-3 0  9994", "tle2": "2 45856  97.7753 224.3061 0012489  85.8520 274.4118 14.76875913320438", "object_type": "PAYLOAD", "criticality_score": 9.0, "last_updated": "2026-06-13T17:29:25.184973+00:00", "maneuver_count": 0, "owner": "N/A"}, "611": {"norad_id": "44905", "name": "GONETS M 14 (M24)", "tle1": "1 44905U 19096A   26164.26476834  .00000013  00000-0  20995-4 0  9999", "tle2": "2 44905  82.5232  87.0719 0013343 156.3253 203.8443 12.42869757293196", "object_type": "PAYLOAD", "criticality_score": 9.0, "last_updated": "2026-06-13T17:29:25.184973+00:00", "maneuver_count": 0, "owner": "N/A"}, "612": {"norad_id": "44906", "name": "GONETS M 15 (M25)", "tle1": "1 44906U 19096B   26164.29417222  .00000037  00000-0  19694-3 0  9998", "tle2": "2 44906  82.5252  87.5144 0014718 180.0586 180.0495 12.42871400293164", "object_type": "PAYLOAD", "criticality_score": 9.0, "last_updated": "2026-06-13T17:29:25.184973+00:00", "maneuver_count": 0, "owner": "N/A"}, "613": {"norad_id": "44907", "name": "GONETS M 16 (M26)", "tle1": "1 44907U 19096C   26164.23995701 -.00000064  00000-0 -53206-3 0  9995", "tle2": "2 44907  82.5198  86.5024 0009711 224.1066 135.9241 12.42891352293144", "object_type": "PAYLOAD", "criticality_score": 9.0, "last_updated": "2026-06-13T17:29:25.184973+00:00", "maneuver_count": 0, "owner": "N/A"}, "614": {"norad_id": "46486", "name": "GONETS M 17", "tle1": "1 46486U 20068A   26164.26503044  .00000013  00000-0  23836-4 0  9997", "tle2": "2 46486  82.4990 349.9437 0023230  45.7029 314.5951 12.42873043258678", "object_type": "PAYLOAD", "criticality_score": 9.0, "last_updated": "2026-06-13T17:29:25.184973+00:00", "maneuver_count": 0, "owner": "N/A"}, "615": {"norad_id": "46487", "name": "GONETS M 18", "tle1": "1 46487U 20068B   26164.30918536  .00000067  00000-0  41481-3 0  9993", "tle2": "2 46487  82.4943 349.0355 0020490  42.3388 317.9268 12.42873402258669", "object_type": "PAYLOAD", "criticality_score": 9.0, "last_updated": "2026-06-13T17:29:25.184973+00:00", "maneuver_count": 0, "owner": "N/A"}, "622": {"norad_id": "45603", "name": "XINGYUN-2 02", "tle1": "1 45603U 20028B   26164.28103240  .00003010  00000-0  18131-3 0  9990", "tle2": "2 45603  97.5071 170.3410 0009316 289.3955  70.6268 15.11526326334242", "object_type": "PAYLOAD", "criticality_score": 9.0, "last_updated": "2026-06-13T17:29:25.184973+00:00", "maneuver_count": 0, "owner": "N/A"}, "643": {"norad_id": "46478", "name": "HJ-2A", "tle1": "1 46478U 20067A   26164.30241118  .00000240  00000-0  41529-4 0  9994", "tle2": "2 46478  97.8829 242.7666 0002398 288.0667  72.0281 14.76509865307681", "object_type": "PAYLOAD", "criticality_score": 9.0, "last_updated": "2026-06-13T17:29:25.184973+00:00", "maneuver_count": 0, "owner": "N/A"}}}